ALOS-2                  
1 39766U 14029A   26200.60294314  .00000376  00000+0  57271-4 0  9997
2 39766  97.9229 297.3038 0001592  91.1773 268.9621 14.79472405656372
KAZEOSAT 2              
1 40010U 14033A   26200.56261861  .00000165  00000+0  24877-4 0  9994
2 40010  97.5391  38.4615 0007740 203.5432 156.5431 14.85501919653760
HODOYOSHI-4             
1 40011U 14033B   26200.64478255  .00000115  00000+0  18126-4 0  9996
2 40011  97.5460  23.9025 0023037 194.5717 165.4839 14.88192173653632
DEIMOS-2                
1 40013U 14033D   26200.60458751  .00001290  00000+0  12676-3 0  9991
2 40013  97.5780  73.9480 0001436 107.5301 252.6077 14.93804704642560
HODOYOSHI-3             
1 40015U 14033F   26200.45164999  .00000463  00000+0  59360-4 0  9997
2 40015  97.6451   2.2003 0031410 247.2199 112.5697 14.85442015652417
SPOT 7                  
1 40053U 14034A   26200.64507711  .00000461  00000+0  10323-3 0  9997
2 40053  98.0607 262.2980 0001617  95.0879 265.0507 14.60984184641872
SKYSAT-B                
1 40072U 14037D   26200.46855837  .00000535  00000+0  64821-4 0  9991
2 40072  98.3857 161.2791 0005900 159.6319 200.5133 14.88097392650769
WORLDVIEW-3 (WV-3)      
1 40115U 14048A   26200.57675492  .00000342  00000+0  46323-4 0  9993
2 40115  97.8553 274.9610 0001629 149.5228 210.6082 14.85067744646717
GAOFEN-2                
1 40118U 14049A   26200.60845968  .00000871  00000+0  11942-3 0  9993
2 40118  98.0088 264.7824 0008529 122.4672 237.7366 14.80932345644030
YAOGAN-21               
1 40143U 14053A   26200.60845259  .00004022  00000+0  15530-3 0  9998
2 40143  97.1454 239.4587 0007166 352.8478   7.2658 15.26794291659902
YAOGAN-22               
1 40275U 14063A   26200.43132598 -.00000033  00000+0  36270-4 0  9995
2 40275 100.7768 352.2457 0006902 116.4820 243.7000 13.15531740564052
ASNARO                  
1 40298U 14070A   26200.62247604  .00004327  00000+0  20743-3 0  9990
2 40298  97.3435 275.8639 0004594  77.6309 282.5440 15.19415670648934
YAOGAN-24               
1 40310U 14072A   26200.61900654  .00000736  00000+0  11410-3 0  9998
2 40310  98.1536 338.2342 0014963 155.7588 204.4328 14.76122653628500
CBERS 4                 
1 40336U 14079A   26200.58792433  .00000115  00000+0  54610-4 0  9994
2 40336  98.3509 256.4002 0000627  62.0637 298.0613 14.35517224608603
YAOGAN-26               
1 40362U 14088A   26200.64863774  .00011347  00000+0  21459-3 0  9990
2 40362  97.0657 200.1267 0001224 310.4347  49.6797 15.48557286642724
SMAP                    
1 40376U 15003A   26200.55835800  .00000157  00000+0  39354-4 0  9993
2 40376  98.1285 207.1958 0001628  93.2261 266.9127 14.63391055612354
KOMPSAT-3A              
1 40536U 15014A   26200.61415521  .00019926  00000+0  27239-3 0  9996
2 40536  97.6903 194.3890 0055664  60.0847 300.5919 15.55607726626857
SENTINEL-2A             
1 40697U 15028A   26200.59232730  .00000424  00000+0  17838-3 0  9992
2 40697  98.5671 274.9824 0001304  95.5040 264.6291 14.30816679578365
GAOFEN-8                
1 40701U 15030A   26200.63323543  .00010239  00000+0  20406-3 0  9999
2 40701  97.6898  35.9768 0009840  82.0428 278.1937 15.47047108616461
CARBONITE 1 (CBNT-1)    
1 40718U 15032D   26200.62285402  .00000057  00000+0  13098-4 0  9996
2 40718  97.6526  17.3348 0014230 182.1879 177.9276 14.83672706594156
YAOGAN-27               
1 40878U 15040A   26200.64147516 -.00000127  00000+0 -22211-3 0  9993
2 40878 100.1176 185.6186 0008675 135.3119 224.8695 13.16070604521933
GAOFEN-9 01             
1 40894U 15047A   26200.58613625  .00000405  00000+0  55854-4 0  9997
2 40894  97.6263 234.8072 0028158  36.6367 323.6765 14.82939581584998
YAOGAN-28               
1 41026U 15064A   26200.61596918  .00003420  00000+0  12846-3 0  9996
2 41026  97.3117 338.2327 0011992  79.5644 280.6947 15.27791776595634
YAOGAN-29               
1 41038U 15069A   26200.62968140  .00000198  00000+0  30953-4 0  9994
2 41038  98.0014 229.3122 0000313   1.6268 358.4946 14.83107829575437
KENT RIDGE 1            
1 41167U 15077B   26200.64240953  .00002283  00000+0  62284-4 0  9992
2 41167  14.9808  24.5839 0008258 337.6771  22.3191 15.23297541586050
GAOFEN-4                
1 41194U 15083A   26200.56998112 -.00000339  00000+0  00000+0 0  9991
2 41194   0.4391  83.8465 0004176 122.3664  42.0354  1.00271085 38850
JASON-3                 
1 41240U 16002A   26200.62411223 -.00000059  00000+0  13016-4 0  9990
2 41240  66.0416  57.6405 0008138 270.5355  89.4731 12.87628837491424
SENTINEL-3A             
1 41335U 16011A   26200.61654826  .00000033  00000+0  31749-4 0  9996
2 41335  98.6234 267.5318 0001316  89.1983 270.9348 14.26740530542681
ZIYUAN 3-02 (ZY 3-02)   
1 41556U 16033A   26200.61614573  .00002619  00000+0  11933-3 0  9994
2 41556  97.3820 275.7672 0014564 169.7248 190.4289 15.21458629562914
CARTOSAT-2C             
1 41599U 16040A   26200.59744898  .00001994  00000+0  97699-4 0  9999
2 41599  97.4459 260.1265 0009204  31.7597 328.4191 15.19282385558636
