OBJECT_NAME,OBJECT_ID,EPOCH,MEAN_MOTION,ECCENTRICITY,INCLINATION,RA_OF_ASC_NODE,ARG_OF_PERICENTER,MEAN_ANOMALY,EPHEMERIS_TYPE,CLASSIFICATION_TYPE,NORAD_CAT_ID,ELEMENT_SET_NO,REV_AT_EPOCH,BSTAR,MEAN_MOTION_DOT,MEAN_MOTION_DDOT
ALOS-2,2014-029A,2026-07-19T14:28:14.287296,14.79472405,.00015922,97.9229,297.3038,91.1773,268.9621,0,U,39766,999,65637,.5727063E-4,.376E-5,0
KAZEOSAT 2,2014-033A,2026-07-19T13:30:10.247904,14.85501919,.00077401,97.5391,38.4615,203.5432,156.5431,0,U,40010,999,65376,.24876999E-4,.165E-5,0
HODOYOSHI-4,2014-033B,2026-07-19T15:28:29.212320,14.88192173,.00230379,97.5460,23.9025,194.5717,165.4839,0,U,40011,999,65363,.18125805E-4,.115E-5,0
DEIMOS-2,2014-033D,2026-07-19T14:30:36.360864,14.93804704,.00014363,97.5780,73.9480,107.5301,252.6077,0,U,40013,999,64256,.12676153E-3,.129E-4,0
HODOYOSHI-3,2014-033F,2026-07-19T10:50:22.559136,14.85442015,.00314107,97.6451,2.2003,247.2199,112.5697,0,U,40015,999,65241,.59360187E-4,.463E-5,0
SPOT 7,2014-034A,2026-07-19T15:28:54.662304,14.60984184,.00016178,98.0607,262.2980,95.0879,265.0507,0,U,40053,999,64187,.10322758E-3,.461E-5,0
SKYSAT-B,2014-037D,2026-07-19T11:14:43.443168,14.88097392,.00059008,98.3857,161.2791,159.6319,200.5133,0,U,40072,999,65076,.64821304E-4,.535E-5,0
WORLDVIEW-3 (WV-3),2014-048A,2026-07-19T13:50:31.625088,14.85067744,.00016293,97.8553,274.9610,149.5228,210.6082,0,U,40115,999,64671,.46323325E-4,.342E-5,0
GAOFEN-2,2014-049A,2026-07-19T14:36:10.916352,14.80932345,.0008529,98.0088,264.7824,122.4672,237.7366,0,U,40118,999,64403,.11941951E-3,.871E-5,0
YAOGAN-21,2014-053A,2026-07-19T14:36:10.303776,15.26794291,.00071662,97.1454,239.4587,352.8478,7.2658,0,U,40143,999,65990,.15529623E-3,.4022E-4,0
YAOGAN-22,2014-063A,2026-07-19T10:21:06.564672,13.15531740,.00069027,100.7768,352.2457,116.4820,243.7000,0,U,40275,999,56405,.36270134E-4,-.33E-6,0
ASNARO,2014-070A,2026-07-19T14:56:21.929856,15.19415670,.00045949,97.3435,275.8639,77.6309,282.5440,0,U,40298,999,64893,.2074323E-3,.4327E-4,0
YAOGAN-24,2014-072A,2026-07-19T14:51:22.165056,14.76122653,.00149639,98.1536,338.2342,155.7588,204.4328,0,U,40310,999,62850,.1140981E-3,.736E-5,0
CBERS 4,2014-079A,2026-07-19T14:06:36.662112,14.35517224,.0000627,98.3509,256.4002,62.0637,298.0613,0,U,40336,999,60860,.54610112E-4,.115E-5,0
YAOGAN-26,2014-088A,2026-07-19T15:34:02.300736,15.48557286,.00012242,97.0657,200.1267,310.4347,49.6797,0,U,40362,999,64272,.21458537E-3,.11347E-3,0
SMAP,2015-003A,2026-07-19T13:24:02.131200,14.63391055,.00016287,98.1285,207.1958,93.2261,266.9127,0,U,40376,999,61235,.39353941E-4,.157E-5,0
KOMPSAT-3A,2015-014A,2026-07-19T14:44:23.010144,15.55607726,.00556647,97.6903,194.3890,60.0847,300.5919,0,U,40536,999,62685,.27238654E-3,.19926E-3,0
SENTINEL-2A,2015-028A,2026-07-19T14:12:57.078720,14.30816679,.0001304,98.5671,274.9824,95.5040,264.6291,0,U,40697,999,57836,.17837653E-3,.424E-5,0
GAOFEN-8,2015-030A,2026-07-19T15:11:51.541152,15.47047108,.00098406,97.6898,35.9768,82.0428,278.1937,0,U,40701,999,61646,.20406241E-3,.10239E-3,0
CARBONITE 1 (CBNT-1),2015-032D,2026-07-19T14:56:54.587328,14.83672706,.001423,97.6526,17.3348,182.1879,177.9276,0,U,40718,999,59415,.13097556E-4,.57E-6,0
YAOGAN-27,2015-040A,2026-07-19T15:23:43.453824,13.16070604,.00086754,100.1176,185.6186,135.3119,224.8695,0,U,40878,999,52193,-.22211E-3,-.127E-5,0
GAOFEN-9 01,2015-047A,2026-07-19T14:04:02.172000,14.82939581,.00281583,97.6263,234.8072,36.6367,323.6765,0,U,40894,999,58499,.55853891E-4,.405E-5,0
YAOGAN-28,2015-064A,2026-07-19T14:46:59.737152,15.27791776,.00119921,97.3117,338.2327,79.5644,280.6947,0,U,41026,999,59563,.12846038E-3,.342E-4,0
YAOGAN-29,2015-069A,2026-07-19T15:06:44.472960,14.83107829,.00003133,98.0014,229.3122,1.6268,358.4946,0,U,41038,999,57543,.30953123E-4,.198E-5,0
KENT RIDGE 1,2015-077B,2026-07-19T15:25:04.183392,15.23297541,.00082583,14.9808,24.5839,337.6771,22.3191,0,U,41167,999,58605,.62284243E-4,.2283E-4,0
GAOFEN-4,2015-083A,2026-07-19T13:40:46.368768,1.00271085,.00041765,0.4391,83.8465,122.3664,42.0354,0,U,41194,999,3885,0,-.339E-5,0
JASON-3,2016-002A,2026-07-19T14:58:43.296672,12.87628837,.00081388,66.0416,57.6405,270.5355,89.4731,0,U,41240,999,49142,.13015678E-4,-.59E-6,0
SENTINEL-3A,2016-011A,2026-07-19T14:47:49.769664,14.26740530,.00013161,98.6234,267.5318,89.1983,270.9348,0,U,41335,999,54268,.31749399E-4,.33E-6,0
ZIYUAN 3-02 (ZY 3-02),2016-033A,2026-07-19T14:47:14.991072,15.21458629,.00145648,97.3820,275.7672,169.7248,190.4289,0,U,41556,999,56291,.11932797E-3,.2619E-4,0
CARTOSAT-2C,2016-040A,2026-07-19T14:20:19.591872,15.19282385,.00092046,97.4459,260.1265,31.7597,328.4191,0,U,41599,999,55863,.97698709E-4,.1994E-4,0
